[
  {
    "name": "ONEWEB-0616",
    "noradId": "55157",
    "line1": "1 55157U 23004T   26177.93880086  .00000047  00000+0  88575-4 0  9994",
    "line2": "2 55157  87.9134   3.9275 0001005 104.6266 255.4977 13.17649642168988"
  },
  {
    "name": "ONEWEB-0617",
    "noradId": "55158",
    "line1": "1 55158U 23004U   26177.83299635 -.00000158  00000+0 -48063-3 0  9990",
    "line2": "2 55158  87.8887  19.1484 0002204  81.3451 278.7926 13.11418401167121"
  },
  {
    "name": "ONEWEB-0618",
    "noradId": "55159",
    "line1": "1 55159U 23004V   26177.97840707  .00004289  00000+0  23963-3 0  9997",
    "line2": "2 55159  86.9094 173.6591 0009442 252.5765 107.4443 15.13213966183749"
  },
  {
    "name": "ONEWEB-0619",
    "noradId": "55160",
    "line1": "1 55160U 23004W   26177.89492832  .00000047  00000+0  89048-4 0  9997",
    "line2": "2 55160  87.9143   3.9178 0001745  77.7922 282.3405 13.17649467168872"
  },
  {
    "name": "ONEWEB-0620",
    "noradId": "55161",
    "line1": "1 55161U 23004X   26177.82789909 -.00000300  00000+0 -88097-3 0  9991",
    "line2": "2 55161  87.8881  19.1575 0002021  93.4932 266.6427 13.11417061167094"
  },
  {
    "name": "ONEWEB-0621",
    "noradId": "55162",
    "line1": "1 55162U 23004Y   26177.93133771  .00000586  00000+0  16164-2 0  9993",
    "line2": "2 55162  87.8890  19.1264 0001941  81.1468 278.9880 13.11416356167082"
  },
  {
    "name": "ONEWEB-0622",
    "noradId": "55163",
    "line1": "1 55163U 23004Z   26177.93642692  .00000571  00000+0  15747-2 0  9991",
    "line2": "2 55163  87.8891  19.1280 0002555  82.5258 277.6160 13.11415946167076"
  },
  {
    "name": "ONEWEB-0623",
    "noradId": "55164",
    "line1": "1 55164U 23004AA  26177.88985120  .00000050  00000+0  95916-4 0  9992",
    "line2": "2 55164  87.9130   3.9478 0002305  71.8156 288.3226 13.17650169168869"
  },
  {
    "name": "ONEWEB-0624",
    "noradId": "55165",
    "line1": "1 55165U 23004AB  26177.94964251 -.00000186  00000+0 -54834-3 0  9997",
    "line2": "2 55165  87.8950 348.6416 0001853  88.5317 271.6024 13.12928194169358"
  },
  {
    "name": "ONEWEB-0625",
    "noradId": "55166",
    "line1": "1 55166U 23004AC  26177.95567610  .00000084  00000+0  18261-3 0  9996",
    "line2": "2 55166  87.9133   3.9306 0001678  89.5171 270.6153 13.17649537168869"
  },
  {
    "name": "ONEWEB-0626",
    "noradId": "55167",
    "line1": "1 55167U 23004AD  26177.94553455  .00000045  00000+0  83141-4 0  9995",
    "line2": "2 55167  87.9131   3.9322 0002121 100.2364 259.9007 13.17657196168863"
  },
  {
    "name": "ONEWEB-0627",
    "noradId": "55168",
    "line1": "1 55168U 23004AE  26177.93372130  .00001233  00000+0  31411-2 0  9995",
    "line2": "2 55168  87.9133   3.9349 0002104  76.5933 283.5434 13.17660172168868"
  },
  {
    "name": "ONEWEB-0628",
    "noradId": "55169",
    "line1": "1 55169U 23004AF  26177.93467512  .00000266  00000+0  70352-3 0  9998",
    "line2": "2 55169  87.8951 348.7142 0002076  73.9675 286.1682 13.12441146169317"
  },
  {
    "name": "ONEWEB-0629",
    "noradId": "55170",
    "line1": "1 55170U 23004AG  26177.90926650  .00000050  00000+0  96191-4 0  9991",
    "line2": "2 55170  87.9132   3.9359 0001739  80.0868 280.0460 13.17648623168869"
  },
  {
    "name": "ONEWEB-0631",
    "noradId": "55171",
    "line1": "1 55171U 23004AH  26177.96543409 -.00000037  00000+0 -12658-3 0  9997",
    "line2": "2 55171  87.9176 333.4903 0002344  97.9128 262.2270 13.18685637170965"
  },
  {
    "name": "ONEWEB-0709",
    "noradId": "55172",
    "line1": "1 55172U 23004AJ  26177.81772610 -.00000413  00000+0 -12010-2 0  9999",
    "line2": "2 55172  87.8880  19.1616 0002217 110.8406 249.2959 13.11417477167131"
  },
  {
    "name": "ONEWEB-0710",
    "noradId": "55173",
    "line1": "1 55173U 23004AK  26177.92360206  .00000003  00000+0 -24482-4 0  9998",
    "line2": "2 55173  87.9131   3.9283 0002017  87.0083 273.1279 13.17650754168862"
  },
  {
    "name": "ONEWEB-0711",
    "noradId": "55174",
    "line1": "1 55174U 23004AL  26177.94151183  .00000442  00000+0  12121-2 0  9994",
    "line2": "2 55174  87.8882  19.1245 0002420  75.6886 284.4511 13.11415135167111"
  },
  {
    "name": "ONEWEB-0713",
    "noradId": "55175",
    "line1": "1 55175U 23004AM  26177.96015358 -.00000327  00000+0 -95971-3 0  9999",
    "line2": "2 55175  87.8883  19.1225 0002139  80.5059 279.6311 13.11415683167106"
  },
  {
    "name": "ONEWEB-0715",
    "noradId": "55176",
    "line1": "1 55176U 23004AN  26177.95506324 -.00000105  00000+0 -33305-3 0  9994",
    "line2": "2 55176  87.8880  19.1242 0002315 101.2253 258.9136 13.11414235167147"
  },
  {
    "name": "ONEWEB-0716",
    "noradId": "55177",
    "line1": "1 55177U 23004AP  26177.91685096  .00000059  00000+0  11970-3 0  9995",
    "line2": "2 55177  87.9131   3.9325 0001636  91.5022 268.6297 13.17650749168865"
  },
  {
    "name": "ONEWEB-0717",
    "noradId": "55178",
    "line1": "1 55178U 23004AQ  26177.89999060 -.00000003  00000+0 -41255-4 0  9993",
    "line2": "2 55178  87.9143   3.9243 0002408  84.4990 275.6416 13.17648451168915"
  },
  {
    "name": "ONEWEB-0719",
    "noradId": "55179",
    "line1": "1 55179U 23004AR  26177.91011551  .00000049  00000+0  91954-4 0  9996",
    "line2": "2 55179  87.9142   3.9027 0001709  86.7003 273.4324 13.17649523168867"
  },
  {
    "name": "ONEWEB-0530",
    "noradId": "55796",
    "line1": "1 55796U 23029A   26177.78680385 -.00000066  00000+0 -19376-3 0  9998",
    "line2": "2 55796  87.9185 272.5552 0002135  87.8971 272.2407 13.20772163162411"
  },
  {
    "name": "ONEWEB-0534",
    "noradId": "55797",
    "line1": "1 55797U 23029B   26177.77501089  .00000023  00000+0  25353-4 0  9995",
    "line2": "2 55797  87.9189 272.5583 0001896 101.7454 258.3893 13.20771961162414"
  },
  {
    "name": "ONEWEB-0556",
    "noradId": "55798",
    "line1": "1 55798U 23029C   26177.78172623 -.00000030  00000+0 -10491-3 0  9991",
    "line2": "2 55798  87.9184 272.5560 0001279  83.6479 276.4800 13.20773856162419"
  },
  {
    "name": "ONEWEB-0562",
    "noradId": "55799",
    "line1": "1 55799U 23029D   26177.76828115 -.00000069  00000+0 -20189-3 0  9991",
    "line2": "2 55799  87.9189 272.5401 0001976  76.3846 283.7508 13.20770925162410"
  },
  {
    "name": "ONEWEB-0563",
    "noradId": "55800",
    "line1": "1 55800U 23029E   26177.76322764 -.00000802  00000+0 -20038-2 0  9990",
    "line2": "2 55800  87.9186 272.5712 0001792 106.0188 254.1143 13.20776117162406"
  },
  {
    "name": "ONEWEB-0564",
    "noradId": "55801",
    "line1": "1 55801U 23029F   26177.75650480 -.00000034  00000+0 -11659-3 0  9996",
    "line2": "2 55801  87.9188 272.5463 0002033  89.1924 270.9442 13.20771601162412"
  },
  {
    "name": "ONEWEB-0638",
    "noradId": "55802",
    "line1": "1 55802U 23029G   26177.75556076  .00000239  00000+0  60972-3 0  9990",
    "line2": "2 55802  87.8961 287.8439 0001535  86.8967 273.2338 13.14504533160655"
  },
  {
    "name": "ONEWEB-0639",
    "noradId": "55803",
    "line1": "1 55803U 23029H   26177.88808784  .00000000  00000+0 -31787-4 0  9991",
    "line2": "2 55803  87.9176 303.0434 0001768 130.1697 229.9591 13.19724869160180"
  },
  {
    "name": "ONEWEB-0640",
    "noradId": "55804",
    "line1": "1 55804U 23029J   26177.84118678  .00000198  00000+0  49895-3 0  9999",
    "line2": "2 55804  87.8960 287.8176 0001213  96.9395 263.1873 13.14503916160683"
  },
  {
    "name": "ONEWEB-0641",
    "noradId": "55805",
    "line1": "1 55805U 23029K   26177.88335743 -.00000053  00000+0 -16552-3 0  9994",
    "line2": "2 55805  87.9185 303.0342 0001900 105.2634 254.8709 13.19725287160196"
  },
  {
    "name": "ONEWEB-0642",
    "noradId": "55806",
    "line1": "1 55806U 23029L   26177.80281110 -.00000027  00000+0 -10073-3 0  9998",
    "line2": "2 55806  87.9177 303.0615 0002014 125.0396 235.0926 13.19725337160179"
  },
  {
    "name": "ONEWEB-0643",
    "noradId": "55807",
    "line1": "1 55807U 23029M   26177.81106080 -.00000085  00000+0 -26398-3 0  9993",
    "line2": "2 55807  87.8960 287.8110 0002238 118.2052 241.9304 13.14503848160654"
  },
  {
    "name": "ONEWEB-0644",
    "noradId": "55808",
    "line1": "1 55808U 23029N   26177.87388616 -.00000025  00000+0 -93667-4 0  9995",
    "line2": "2 55808  87.9175 303.0483 0001929 111.0692 249.0647 13.19724690160187"
  },
  {
    "name": "ONEWEB-0645",
    "noradId": "55809",
    "line1": "1 55809U 23029P   26177.89599862 -.00000058  00000+0 -17673-3 0  9993",
    "line2": "2 55809  87.9175 303.0409 0001548 109.9547 250.1752 13.19724619160189"
  },
  {
    "name": "ONEWEB-0646",
    "noradId": "55810",
    "line1": "1 55810U 23029Q   26177.91337747 -.00000042  00000+0 -13631-3 0  9993",
    "line2": "2 55810  87.9178 303.0378 0001938 108.8535 251.2808 13.19725321160171"
  },
  {
    "name": "ONEWEB-0648",
    "noradId": "55811",
    "line1": "1 55811U 23029R   26177.85546117 -.00000057  00000+0 -18855-3 0  9999",
    "line2": "2 55811  87.8970 287.7769 0001521 128.5334 231.5933 13.14501334160662"
  },
  {
    "name": "ONEWEB-0649",
    "noradId": "55812",
    "line1": "1 55812U 23029S   26177.86282382 -.00000111  00000+0 -30885-3 0  9990",
    "line2": "2 55812  87.9179 303.0454 0001746 105.8078 254.3247 13.19724694160202"
  },
  {
    "name": "ONEWEB-0650",
    "noradId": "55813",
    "line1": "1 55813U 23029T   26177.85809361  .00004478  00000+0  11150-1 0  9992",
    "line2": "2 55813  87.9177 303.0489 0001805 129.0964 231.0329 13.19707685160177"
  },
  {
    "name": "ONEWEB-0652",
    "noradId": "55814",
    "line1": "1 55814U 23029U   26177.83642720  .00000191  00000+0  48046-3 0  9999",
    "line2": "2 55814  87.8967 287.7875 0002057  97.4906 262.6458 13.14500876160637"
  },
  {
    "name": "ONEWEB-0653",
    "noradId": "55815",
    "line1": "1 55815U 23029V   26177.82056224  .00000078  00000+0  17610-3 0  9994",
    "line2": "2 55815  87.8969 287.7886 0001886  98.3759 261.7585 13.14503863160660"
  }
]